city,geoid,name,country,lat,long
"Aalborg",2624886,"Aalborg","Denmark","57.048","9.9187"
"Aarhus",2624652,"Århus","Denmark","56.15674","10.21076"
"Aarschot",2803429,"Aarschot","Belgium","50.98715","4.83695"
"Acqui",3183490,"Acqui Terme","Italy","44.67552","8.46934"
"Akron",5145476,"Akron","United States","41.08144","-81.51901"
"Almaty",1526384,"Almaty","Kazakhstan","43.25667","76.92861"
"Amsterdam",2759794,"Amsterdam","Netherlands","52.37403","4.88969"
"Angoulème",3037598,"Angoulême","France","45.64997","0.15345"
"Ankara",323786,"Ankara","Turkey","39.91987","32.85427"
"Ann Arbor",4984247,"Ann Arbor","United States","42.27756","-83.74088"
"Antwerpen",2803138,"Antwerpen","Belgium","51.22047","4.40026"
"Arad",686254,"Arad","Romania","46.18333","21.31667"
"Arnhem",2759661,"Arnhem","Netherlands","51.98","5.91111"
"Ashgabat",162183,"Ashgabat","Turkmenistan","37.95","58.38333"
"Assisi",3182722,"Assisi","Italy","43.06671","12.62109"
"Athén",264371,"Athens","Greece","37.98376","23.72784"
"Bacău",685948,"Bacău","Romania","46.56718","26.91384"
"Bad Kissingen",2953424,"Bad Kissingen","Germany","50.20228","10.07784"
"Bad Wörishofen",2953313,"Bad Wörishofen","Germany","48.00674","10.59666"
"Baden-Baden",2953504,"Baden-Baden","Germany","48.7606","8.23975"
"Bahia",3450554,"Salvador","Brazil","-12.97111","-38.51083"
"Baia Mare",685826,"Baia Mare","Romania","47.65729","23.56808"
"Baja",3055685,"Baja","Hungary","46.18299","18.95307"
"Baku",587084,"Baku","Azerbaijan","40.37767","49.89201"
"Banská Bystrica",3061186,"Banská Bystrica","Slovakia","48.73946","19.15349"
"Barcelona",3128760,"Barcelona","Spain","41.38879","2.15899"
"Bari",3182351,"Bari","Italy","41.12066","16.86982"
"Basel",2661604,"Basel","Switzerland","47.55839","7.57327"
"Békéscsaba",722437,"Békéscsaba","Hungary","46.68333","21.1"
"Belo Horizonte",3470127,"Belo Horizonte","Brazil","-19.92083","-43.93778"
"Beograd",792680,"Belgrade","Serbia","44.80401","20.46513"
"Berlin",2950159,"Berlin","Germany","52.52437","13.41053"
"Bern",2661552,"Bern","Switzerland","46.94809","7.44744"
"Bilthoven",2758927,"Bilthoven","Netherlands","52.13","5.20139"
"Bistriţa",684657,"Bistriţa","Romania","47.13316","24.50011"
"Boca Raton",4148411,"Boca Raton","United States","26.35869","-80.0831"
"Bologna",3181928,"Bologna","Italy","44.49381","11.33875"
"Boston",4930956,"Boston","United States","42.35843","-71.05977"
"Boudry",2661429,"Boudry","Switzerland","46.94991","6.83757"
"Braşov",683844,"Braşov","Romania","45.64861","25.60613"
"Bratislava",3060972,"Bratislava","Slovakia","48.14816","17.10674"
"Braunschweig",2945024,"Braunschweig","Germany","52.26594","10.52673"
"Bregenz",2781503,"Bregenz","Austria","47.50311","9.7471"
"Bremen",2944388,"Bremen","Germany","53.07582","8.80717"
"Brescia",3181554,"Brescia","Italy","45.53558","10.21472"
"Brno",3078610,"Brno","Czechia","49.19522","16.60796"
"Bruxelles",2800866,"Brussels","Belgium","50.85045","4.34878"
"Bucureşti",683506,"Bucharest","Romania","44.43225","26.10626"
"Budapest",3054643,"Budapest","Hungary","47.49835","19.04045"
"Buenos Aires",3435910,"Buenos Aires","Argentina","-34.61315","-58.37723"
"Buffalo",5110629,"Buffalo","United States","42.88645","-78.87837"
"Bussum",2758064,"Bussum","Netherlands","52.27333","5.16111"
"Bydgoszcz",3102014,"Bydgoszcz","Poland","53.1235","18.00762"
"Cagliari",2525473,"Cagliari","Italy","39.23054","9.11917"
"Cairo",360630,"Cairo","Egypt","30.06263","31.24967"
"Caracas",3646738,"Caracas","Venezuela","10.48801","-66.87919"
"Catania",2525068,"Catania","Italy","37.49223","15.07041"
"Cetinje",3202641,"Cetinje","Montenegro","42.39063","18.91417"
"Charlottenburg",2940187,"Charlottenburg","Germany","52.51667","13.28333"
"Cheadle",2653292,"Cheadle","United Kingdom","52.98333","-1.98333"
"Cheboksary",569696,"Cheboksary","Russia","56.13222","47.25194"
"Chicago",4887398,"Chicago","United States","41.85003","-87.65005"
"Chisinau",618426,"Chisinau","Moldova","47.00556","28.8575"
"Cieszyn",3101321,"Cieszyn","Poland","49.75133","18.63213"
"Cleveland",5150529,"Cleveland","United States","41.4995","-81.69541"
"Cluj-Napoca",681290,"Cluj-Napoca","Romania","46.76667","23.6"
"Coira",2661169,"Chur","Switzerland","46.84986","9.53287"
"Colombo",1248991,"Colombo","Sri Lanka","6.93548","79.84868"
"Como",3178229,"Como","Italy","45.80819","9.0832"
"Copenhagen",2618425,"Copenhagen","Denmark","55.67594","12.56553"
"Craiova",680332,"Craiova","Romania","44.31667","23.8"
"Cremona",3177838,"Cremona","Italy","45.13325","10.02129"
"Cuautla",3529982,"Cuautla","Mexico","18.8106","-98.93525"
"Damaskus",170654,"Damascus","Syria","33.5102","36.29128"
"Darmstadt",2938913,"Darmstadt","Germany","49.87167","8.65027"
"Debrecen",721472,"Debrecen","Hungary","47.53167","21.62444"
"Dej",679550,"Dej","Romania","47.15","23.86667"
"Den Haag",2747373,"The Hague","Netherlands","52.07667","4.29861"
"Detroit",4990729,"Detroit","United States","42.33143","-83.04575"
"Draguignan",3020850,"Draguignan","France","43.53692","6.46458"
"Dresden",2935022,"Dresden","Germany","51.05089","13.73832"
"Dublin",2964574,"Dublin","Ireland","53.33306","-6.24889"
"Dushanbe",1221874,"Dushanbe","Tajikistan","38.53575","68.77905"
"Düsseldorf",2934246,"Düsseldorf","Germany","51.22172","6.77616"
"Edinborough",7216924,"Edinborough","United States","28.0971","-82.4819"
"Einsiedeln",2931674,"Einsiedeln","Germany","47.80559","10.17182"
"Eisenach",2931574,"Eisenach","Germany","50.9807","10.31522"
"Eisenstadt",2780190,"Eisenstadt","Austria","47.84565","16.52327"
"Elberfeld",2931276,"Elberfeld","Germany","51.25083","7.14816"
"Engels",563464,"Engel’s","Russia","51.48389","46.10528"
"Englewood Cliffs",5097677,"Englewood Cliffs","United States","40.88538","-73.95236"
"Erlangen",2929567,"Erlangen","Germany","49.59099","11.00783"
"Evanston",4891382,"Evanston","United States","42.04114","-87.69006"
"Filey",2649463,"Filey","United Kingdom","54.21","-0.28917"
"Firenze",3176959,"Florence","Italy","43.77925","11.24626"
"Fogărăs",678499,"Făgăraș","Romania","45.85","24.96667"
"Foligni",null,null,null,null,null
"Fönjan",null,null,null,null,null
"Frankfurt am Main",2925533,"Frankfurt am Main","Germany","50.11552","8.68417"
"Frederiksborg",null,null,null,null,null
"Frunze",1506759,"Frunze","Russia","56.82605","74.50976"
"Gand",2797656,"Gent","Belgium","51.05","3.71667"
"Gaurhati",1271462,"Gaurhāti","India","22.8","88.35"
"Gdańsk",3099434,"Gdańsk","Poland","54.35227","18.64912"
"Genf",2660646,"Genève","Switzerland","46.20222","6.14569"
"Genova",3176219,"Genoa","Italy","44.40478","8.94439"
"Gherla",677429,"Gherla","Romania","47.03333","23.91667"
"Glasgow",2648579,"Glasgow","United Kingdom","55.86515","-4.25763"
"God",3052241,"Göd","Hungary","47.68324","19.13417"
"Gorno-Altajsk",1506271,"Gorno-Altaysk","Russia","51.96056","85.91892"
"Göteborg",2711537,"Göteborg","Sweden","57.70716","11.96679"
"Gran",2515270,"Las Palmas de Gran Canaria","Spain","28.09973","-15.41343"
"Graz",2778067,"Graz","Austria","47.06667","15.45"
"Gródek Jagielloński",708313,"Horodok","Ukraine","49.78465","23.64806"
"Groningen",2755251,"Groningen","Netherlands","53.21917","6.56667"
"Grossenhain",2916630,"Großenhain","Germany","51.28951","13.5335"
"Guildford",2647793,"Guildford","United Kingdom","51.23536","-0.57427"
"Gütersloh",2913366,"Gütersloh","Germany","51.90693","8.37853"
"Gyoma",11078422,"Gyōma","Japan","35.30226","139.98286"
"Győr",3052009,"Győr","Hungary","47.68333","17.63512"
"Haarlem",2755003,"Haarlem","Netherlands","52.38084","4.63683"
"Halle",2911522,"Halle (Saale)","Germany","51.48158","11.97947"
"Hamburg",2911298,"Hamburg","Germany","53.55073","9.99302"
"Hämeenlinna",659180,"Hämeenlinna","Finland","60.99596","24.46434"
"Hannover",2910831,"Hannover","Germany","52.37052","9.73322"
"Hanoi",1581130,"Hanoi","Vietnam","21.0245","105.84117"
"Harkov",706483,"Kharkiv","Ukraine","49.98081","36.25272"
"Harmondsworth",6951076,"Harmondsworth","United Kingdom","51.48836","-0.47757"
"Heidelberg",2907911,"Heidelberg","Germany","49.40768","8.69079"
"Heilbronn",2907669,"Heilbronn","Germany","49.13995","9.22054"
"Helsinki",658225,"Helsinki","Finland","60.16952","24.93545"
"Iaşi",675810,"Iaşi","Romania","47.16667","27.6"
"Imphal",1269771,"Imphāl","India","24.80805","93.9442"
"Indianapolis",4259418,"Indianapolis","United States","39.76838","-86.15804"
"Innsbruck",2775220,"Innsbruck","Austria","47.26266","11.39454"
"Iowa",4862034,"Iowa City","United States","41.66113","-91.53017"
"Istanbul",745044,"Istanbul","Turkey","41.01384","28.94966"
"Izhevsk",554840,"Izhevsk","Russia","56.84976","53.20448"
"Jena",2895044,"Jena","Germany","50.92878","11.5899"
"Jerevan",616052,"Yerevan","Armenia","40.18111","44.51361"
"Jerusalem",7498240,"West Jerusalem","Israel","31.78199","35.21961"
"Jyväskylä",655194,"Jyväskylä","Finland","62.24147","25.72088"
"Kaleva, MI",null,null,null,null,null
"Kampen",2753106,"Kampen","Netherlands","52.555","5.91111"
"Kansas City",4393217,"Kansas City","United States","39.09973","-94.57857"
"Karlsruhe",2892794,"Karlsruhe","Germany","49.00937","8.40444"
"Kassel",2892518,"Kassel","Germany","51.31667","9.5"
"Katowice",3096472,"Katowice","Poland","50.25841","19.02754"
"Kaunas",598316,"Kaunas","Lithuania","54.90272","23.90961"
"Kazan",551487,"Kazan","Russia","55.78874","49.12214"
"Kežmarok",724503,"Kežmarok","Slovakia","49.13571","20.43352"
"Kiel",2891122,"Kiel","Germany","54.32133","10.13489"
"Kikinda",789518,"Kikinda","Serbia","45.82972","20.46528"
"Klagenfurt",2774326,"Klagenfurt am Wörthersee","Austria","46.62472","14.30528"
"Köln",2886242,"Köln","Germany","50.93333","6.95"
"Konstanz",2885679,"Konstanz","Germany","47.66033","9.17582"
"Köping",2699791,"Köping","Sweden","59.51404","15.99255"
"Košice",724443,"Košice","Slovakia","48.71395","21.25808"
"Kraków",3094802,"Kraków","Poland","50.06143","19.93658"
"Krasnoyarsk",1502026,"Krasnoyarsk","Russia","56.01839","92.86717"
"Kuopio",650224,"Kuopio","Finland","62.89238","27.67703"
"Kyiv",703448,"Kyiv","Ukraine","50.45466","30.5238"
"Kyoto",1857910,"Kyoto","Japan","35.02107","135.75385"
"La Habana",3553478,"Havana","Cuba","23.13302","-82.38304"
"Lahti",649360,"Lahti","Finland","60.98267","25.66151"
"Lanciano",3175173,"Lanciano","Italy","42.22718","14.39024"
"Laren",2751874,"Laren","Netherlands","52.25667","5.22778"
"Lausanne",2659994,"Lausanne","Switzerland","46.516","6.63282"
"Leiden",2751773,"Leiden","Netherlands","52.15833","4.49306"
"Leipzig",2879139,"Leipzig","Germany","51.33962","12.37129"
"Levoča",724294,"Levoča","Slovakia","49.02173","20.59212"
"Liège",2792413,"Liège","Belgium","50.63373","5.56749"
"Linz",2772400,"Linz","Austria","48.30639","14.28611"
"Liptovský Mikuláš",3059050,"Liptovský Mikuláš","Slovakia","49.08061","19.62218"
"Lisboa",2267057,"Lisbon","Portugal","38.71667","-9.13333"
"Livorno",3174659,"Livorno","Italy","43.54427","10.32615"
"Ljubljana",3196359,"Ljubljana","Slovenia","46.05108","14.50513"
"Lochem",2751537,"Lochem","Netherlands","52.15917","6.41111"
"Łódź",3093133,"Łódź","Poland","51.77058","19.47395"
"London",2643743,"London","United Kingdom","51.50853","-0.12574"
"Louvain",2792482,"Leuven","Belgium","50.87959","4.70093"
"Lpt. Martin",null,null,null,null,null
"Lübeck",2875601,"Lübeck","Germany","53.86893","10.68729"
"Lučenec",3058986,"Lučenec","Slovakia","48.33249","19.66708"
"Luzern",2659811,"Luzern","Switzerland","47.05048","8.30635"
"Lviv",702550,"Lviv","Ukraine","49.83826","24.02324"
"Maaston",null,null,null,null,null
"Madras",1264527,"Chennai","India","13.08784","80.27847"
"Madrid",3117735,"Madrid","Spain","40.4165","-3.70256"
"Mainz",2874225,"Mainz","Germany","49.98419","8.2791"
"Mallorca",2512989,"Palma","Spain","39.56939","2.65024"
"Manila",1701668,"Manila","Philippines","14.6042","120.9822"
"Mannheim",2873891,"Mannheim","Germany","49.4891","8.46694"
"Mantova",3174051,"Mantova","Italy","45.16031","10.79784"
"Maribor",3195506,"Maribor","Slovenia","46.55472","15.64667"
"Marseille",2995469,"Marseille","France","43.29695","5.38107"
"Martin",3058780,"Martin","Slovakia","49.06651","18.92399"
"Melbourne",2158177,"Melbourne","Australia","-37.814","144.96332"
"Messina",2524170,"Messina","Italy","38.19394","15.55256"
"Mexico",3530597,"Mexico City","Mexico","19.42847","-99.12766"
"Michigan",5060420,"Michigan","United States","48.025","-98.11705"
"Midlothian",4711156,"Midlothian","United States","32.48236","-96.99445"
"Milano",3173435,"Milan","Italy","45.46427","9.18951"
"Milford, Conn",null,null,null,null,null
"Minden",2871039,"Minden","Germany","52.28953","8.91455"
"Minsk",625144,"Minsk","Belarus","53.9","27.56667"
"Miskolc",717582,"Miskolc","Hungary","48.10306","20.77806"
"Montpellier",2992166,"Montpellier","France","43.61093","3.87635"
"Moscow",524901,"Moscow","Russia","55.75222","37.61556"
"München",2867714,"Munich","Germany","48.13743","11.57549"
"Murska Sobota",3194648,"Murska Sobota","Slovenia","46.6625","16.16639"
"Nagykanizsa",3047679,"Nagykanizsa","Hungary","46.45347","16.99104"
"Napoli",3172394,"Naples","Italy","40.85216","14.26811"
"Nayarit",4011499,"Nayarit","Mexico","32.31388","-115.24632"
"Nedvidek-Tabor",null,null,null,null,null
"New Delhi",1273294,"Delhi","India","28.65195","77.23149"
"New York",5128581,"New York City","United States","40.71427","-74.00597"
"Noto",2523998,"Noto","Italy","36.89244","15.06977"
"Novi Sad",3194360,"Novi Sad","Serbia","45.25167","19.83694"
"Novosibirsk",1496747,"Novosibirsk","Russia","55.0415","82.9346"
"Nürnberg",2861650,"Nürnberg","Germany","49.45421","11.07752"
"Odessa",698740,"Odessa","Ukraine","46.48572","30.74383"
"Olten",2659297,"Olten","Switzerland","47.34999","7.90329"
"Oradea",671768,"Oradea","Romania","47.0458","21.91833"
"Oran",2485926,"Oran","Algeria","35.69906","-0.63588"
"Orăştie",671757,"Orăştie","Romania","45.83333","23.2"
"Orenburg",515003,"Orenburg","Russia","51.7727","55.0988"
"Osijek",3193935,"Osijek","Croatia","45.55111","18.69389"
"Oslo",3143244,"Oslo","Norway","59.91273","10.74609"
"Ostrava",3068799,"Ostrava","Czechia","49.83465","18.28204"
"Oude",2749155,"Oude Bildtzijl","Netherlands","53.30048","5.71849"
"Oudenbosch",2749053,"Oudenbosch","Netherlands","51.58833","4.53472"
"Oxford",2640729,"Oxford","United Kingdom","51.75222","-1.25596"
"Padova",3171728,"Padova","Italy","45.40797","11.88586"
"Palermo",2523920,"Palermo","Italy","38.13205","13.33561"
"Pančevo",787237,"Pančevo","Serbia","44.87177","20.64167"
"Paris",2988507,"Paris","France","48.85341","2.3488"
"Parma",3171457,"Parma","Italy","44.79935","10.32618"
"Pécs",3046526,"Pécs","Hungary","46.0725","18.23083"
"Peking",1816670,"Beijing","China","39.9075","116.39723"
"Periam",671138,"Periam","Romania","46.05","20.86667"
"Petroskoi",509820,"Petrozavodsk","Russia","61.78491","34.34691"
"Petrovec",787072,"Петровец","North Macedonia","41.93889","21.615"
"Philadelphia",4560349,"Philadelphia","United States","39.95233","-75.16379"
"Piacenza",3171058,"Piacenza","Italy","45.05242","9.69342"
"Pittsburgh",5206379,"Pittsburgh","United States","40.44062","-79.99589"
"Plovdiv",728193,"Plovdiv","Bulgaria","42.15","24.75"
"Plzen",3068160,"Pilsen","Czechia","49.74747","13.37759"
"Pola",3192224,"Pula","Croatia","44.86833","13.84806"
"Pori",640999,"Pori","Finland","61.48333","21.78333"
"Portland",5746545,"Portland","United States","45.52345","-122.67621"
"Porvoo",660561,"Porvoo","Finland","60.39233","25.66507"
"Potsdam",2852458,"Potsdam","Germany","52.39886","13.06566"
"Poznań",3088171,"Poznań","Poland","52.40692","16.92993"
"Praha",3067696,"Prague","Czechia","50.08804","14.42076"
"Prešov",723819,"Prešov","Slovakia","48.99839","21.23393"
"Pris",92738,"Prīs al ‘Ulyā","Iraq","35.15941","45.94463"
"Pristina",786714,"Pristina","Kosovo","42.67272","21.16688"
"Purmerend",2748413,"Purmerend","Netherlands","52.505","4.95972"
"Putignano",3169742,"Putignano","Italy","40.85106","17.1219"
"Quezon City",1692192,"Quezon City","Philippines","14.6488","121.0509"
"Ragusa",2523650,"Ragusa","Italy","36.92574","14.72443"
"Ragusa, Sicilia",null,null,null,null,null
"Rangun",1298824,"Yangon","Myanmar","16.80528","96.15611"
"Regensburg",2849483,"Regensburg","Germany","49.01513","12.10161"
"Reinbek",2848845,"Reinbek","Germany","53.51703","10.2488"
"Reşiţa",668954,"Reşiţa","Romania","45.30083","21.88917"
"Reudnitz",2847926,"Reudnitz","Germany","52.13128","14.32551"
"Reutlingen",2847736,"Reutlingen","Germany","48.49144","9.20427"
"Rickmansworth",2639381,"Rickmansworth","United Kingdom","51.63898","-0.47718"
"Riga",456172,"Riga","Latvia","56.946","24.10589"
"Rijeka",3191648,"Rijeka","Croatia","45.32673","14.44241"
"Rio de Janeiro",3451190,"Rio de Janeiro","Brazil","-22.90642","-43.18223"
"Roma",3169070,"Rome","Italy","41.89193","12.51133"
"Romagna",3167373,"Santarcangelo","Italy","44.06326","12.44657"
"Rostov",501175,"Rostov-na-Donu","Russia","47.23135","39.72328"
"Rotterdam",2747891,"Rotterdam","Netherlands","51.9225","4.47917"
"Ružomberok",3057789,"Ružomberok","Slovakia","49.0748","19.30751"
"Rzeszów",759734,"Rzeszów","Poland","50.04132","21.99901"
"Saarlouis",2842632,"Saarlouis","Germany","49.31366","6.75154"
"Saint Petersburg",498817,"Saint Petersburg","Russia","59.93863","30.31413"
"Salzburg",2766824,"Salzburg","Austria","47.79941","13.04399"
"San Francisco",3621911,"San Francisco","Costa Rica","9.99299","-84.12934"
"Santalcangelo",null,null,null,null,null
"Santiago",3871336,"Santiago","Chile","-33.45694","-70.64827"
"Santiago de Chile",3871336,"Santiago","Chile","-33.45694","-70.64827"
"Sao Paulo",3448439,"São Paulo","Brazil","-23.5475","-46.63611"
"Sarajevo",3191281,"Sarajevo","Bosnia and Herzegovina","43.84864","18.35644"
"Satu-Mare",667873,"Satu Mare","Romania","47.79926","22.86255"
"Seoul",1835848,"Seoul","South Korea","37.566","126.9784"
"Shanghai",1796236,"Shanghai","China","31.22222","121.45806"
"Sibiu",667268,"Sibiu","Romania","45.8","24.15"
"Sicilia",2523533,"Sambuca di Sicilia","Italy","37.65294","13.11462"
"Siena",3166548,"Siena","Italy","43.31822","11.33064"
"Sighișoara",8436351,"Sighișoara","Romania","46.22141","24.79279"
"Skalica",727157,"Skalitsa","Bulgaria","42.26667","26.26667"
"Skopje",785842,"Skopje","North Macedonia","41.99646","21.43141"
"Sofija",727011,"Sofia","Bulgaria","42.69751","23.32415"
"Sonderhausen",null,null,null,null,null
"Sopron",3045190,"Sopron","Hungary","47.68501","16.59049"
"Spišská Nová ves",723526,"Spišská Nová Ves","Slovakia","48.94464","20.56153"
"St. Gallen",2658822,"Sankt Gallen","Switzerland","47.42391","9.37477"
"St. Louis",4407066,"St. Louis","United States","38.62727","-90.19789"
"Stavanger",3137115,"Stavanger","Norway","58.97005","5.73332"
"Stockholm",2673730,"Stockholm","Sweden","59.32938","18.06871"
"Strassburg",2973783,"Strasbourg","France","48.58392","7.74553"
"Stuttgart",2825297,"Stuttgart","Germany","48.78232","9.17702"
"Subotica",3189595,"Subotica","Serbia","46.1","19.66667"
"Suceava",665850,"Suceava","Romania","47.63333","26.25"
"Šumperk",3064673,"Šumperk","Czechia","49.96528","16.97061"
"Sydney",2147714,"Sydney","Australia","-33.86785","151.20732"
"Syktyvkar",485239,"Syktyvkar","Russia","61.664","50.815"
"Szakartvelo",null,null,null,null,null
"Szeged",715429,"Szeged","Hungary","46.253","20.14824"
"Szerenin",null,null,null,null,null
"Szombathely",3044310,"Szombathely","Hungary","47.23088","16.62155"
"Tallinn",588409,"Tallinn","Estonia","59.43696","24.75353"
"Tampere",634963,"Tampere","Finland","61.49911","23.78712"
"Târgu-Mureş",665004,"Târgu-Mureş","Romania","46.54245","24.55747"
"Tarnav",1122736,"Tarnāw","Afghanistan","36.69931","68.97371"
"Tarnopol",2015526,"Tarnopol’","Russia","54.046","102.7692"
"Tartu",588335,"Tartu","Estonia","58.38062","26.72509"
"Taskent",1512569,"Tashkent","Uzbekistan","41.26465","69.21627"
"Tbilisi",611717,"Tbilisi","Georgia","41.69411","44.83368"
"Teaneck",5105262,"Teaneck","United States","40.8976","-74.01597"
"Teheran",112931,"Tehran","Iran","35.69439","51.42151"
"Tel Aviv",293397,"Tel Aviv","Israel","32.08088","34.78057"
"Tenerife",2511174,"Santa Cruz de Tenerife","Spain","28.46824","-16.25462"
"Tepic",3981941,"Tepic","Mexico","21.50951","-104.89569"
"Thuin",2785517,"Thuin","Belgium","50.33933","4.28604"
"Thusis",2658371,"Thusis","Switzerland","46.69724","9.43938"
"Tielt",2785477,"Tielt","Belgium","50.9421","4.90505"
"Tilsit",4411750,"Tilsit","United States","37.33033","-89.74204"
"Timișoara",665087,"Timişoara","Romania","45.75372","21.22571"
"Tipsia",null,null,null,null,null
"Tirana",3183875,"Tirana","Albania","41.3275","19.81889"
"Tokyo",1850147,"Tokyo","Japan","35.6895","139.69171"
"Tolmezzo",3165584,"Tolmezzo","Italy","46.39996","13.02051"
"Torino",3165524,"Turin","Italy","45.07049","7.68682"
"Toronto",6167865,"Toronto","Canada","43.70011","-79.4163"
"Tours",3012219,"Joué-lès-Tours","France","47.35223","0.66905"
"Třebice",756813,"Trebice Górne","Poland","52.31175","22.5223"
"Trieste",3165185,"Trieste","Italy","45.64953","13.77678"
"Trnava",3057124,"Trnava","Slovakia","48.37741","17.58723"
"Tübingen",2820860,"Tübingen","Germany","48.52266","9.05222"
"Tunis",2464470,"Tunis","Tunisia","36.81897","10.16579"
"Turda",664460,"Turda","Romania","46.56667","23.78333"
"Turku",633679,"Turku","Finland","60.45148","22.26869"
"Turnu-Măgurele",664437,"Turnu Măgurele","Romania","43.7469","24.86846"
"Tweede",2746075,"Tweede Exloërmond","Netherlands","52.90917","6.93333"
"Udine",3165072,"Udine","Italy","46.0693","13.23715"
"Ufa",479561,"Ufa","Russia","54.74306","55.96779"
"Ulanbator",2028462,"Ulan Bator","Mongolia","47.90771","106.88324"
"Uppsala",2666199,"Uppsala","Sweden","59.85882","17.63889"
"USA",149155,"Usa River","Tanzania","-3.36667","36.85"
"Utrecht",2745912,"Utrecht","Netherlands","52.09083","5.12222"
"Užgorod",690548,"Uzhgorod","Ukraine","48.6242","22.2947"
"Vác",3043293,"Vác","Hungary","47.77591","19.13612"
"Vaduz",3042030,"Vaduz","Liechtenstein","47.14151","9.52154"
"Varna",726050,"Varna","Bulgaria","43.21667","27.91667"
"Velké Meziříčí",3063196,"Velké Meziříčí","Czechia","49.35522","16.01224"
"Venezia",3164603,"Venice","Italy","45.43713","12.33265"
"Verona",3164527,"Verona","Italy","45.4299","10.98444"
"Versec",784136,"Vršac","Serbia","45.11667","21.30361"
"Veszprém",3042929,"Veszprém","Hungary","47.09327","17.91149"
"Viljandi",587577,"Viljandi","Estonia","58.36389","25.59"
"Vilnius",593116,"Vilnius","Lithuania","54.68916","25.2798"
"Visby",2662689,"Visby","Sweden","57.64089","18.29602"
"Vladimir",473247,"Vladimir","Russia","56.13655","40.39658"
"Voronezh",472045,"Voronezh","Russia","51.67204","39.1843"
"Warberg",2814157,"Warberg","Germany","52.1812","10.91972"
"Warborg",null,null,null,null,null
"Warszawa",756135,"Warsaw","Poland","52.22977","21.01178"
"Washington",4140963,"Washington","United States","38.89511","-77.03637"
"Weenen",941335,"Weenen","South Africa","-28.84918","30.07722"
"Weimar",2812482,"Weimar","Germany","50.9803","11.32903"
"Weissensee",2813187,"Weißensee","Germany","52.55632","13.46649"
"Weissenstein",2761587,"Weissenstein","Austria","46.68583","13.73028"
"Wien",2761369,"Vienna","Austria","48.20849","16.37208"
"Wiesbaden",2809346,"Wiesbaden","Germany","50.08258","8.24932"
"Vyborg",470546,"Vyborg","Russia","60.70763","28.75283"
"Winnipeg",6183235,"Winnipeg","Canada","49.8844","-97.14704"
"Wrocław",3081368,"Wrocław","Poland","51.1","17.03333"
"Würzburg",2805615,"Würzburg","Germany","49.79391","9.95121"
"Wurzen",2805597,"Wurzen","Germany","51.3707","12.73939"
"Yekaterinburg",1486209,"Yekaterinburg","Russia","56.8519","60.6122"
"Zagreb",3186886,"Zagreb","Croatia","45.81444","15.97798"
"Zaandijk",2744116,"Zaandijk","Netherlands","52.47494","4.80686"
"Zobor",null,null,null,null,null
"Zolochiv",686896,"Zolochiv","Ukraine","49.80597","24.89436"
"Zrenjanin",783814,"Zrenjanin","Serbia","45.38361","20.38194"
"Zürich",2657896,"Zürich","Switzerland","47.36667","8.55"
"Zutphen",2743608,"Zutphen","Netherlands","52.13833","6.20139"
"Zwolle",2743477,"Zwolle","Netherlands","52.5125","6.09444"
"Zyryanovsk",1516438,"Zyryanovsk","Kazakhstan","49.72654","84.27318"
"Өzdәbmәşr",null,null,null,null,null
"Свистуновои",null,null,null,null,null
"Hillerød",2620320,"Hillerød","Denmark","55.92791","12.30081"
"Maastricht",2751282,"Maastricht","Netherlands","50.85","5.7"
"Varberg",2664996,"Varberg","Sweden","57.10557","12.25078"
"Tábor",3064379,"Tábor","Czechia","49.41441","14.6578"